{
  "type": "FeatureCollection",
  "features": [
    {
      "type": "Feature",
      "properties": {
        "norad_id": 55973,
        "name": "TIANMU-1 03",
        "group": "weather",
        "lat": -24.03576768480919,
        "lon": 160.38708851099605,
        "alt_km": 447.1705998115831,
        "timestamp": "2025-12-20T03:42:47.035747+00:00",
        "meta_object_name": "TIANMU-1 03",
        "meta_object_id": "2023-039A",
        "meta_epoch": "2025-12-19T20:01:35.236704",
        "meta_mean_motion": 15.41119202,
        "meta_eccentricity": 0.0004098,
        "meta_inclination": 97.5103,
        "meta_ra_of_asc_node": 156.6848,
        "meta_arg_of_pericenter": 40.6668,
        "meta_mean_anomaly": 319.4884,
        "meta_ephemeris_type": 0,
        "meta_classification_type": "U",
        "meta_norad_cat_id": 55973,
        "meta_element_set_no": 999,
        "meta_rev_at_epoch": 15315,
        "meta_bstar": 0.00026454,
        "meta_mean_motion_dot": 0.00010868,
        "meta_mean_motion_ddot": 0,
        "tle_line1": "1 55973U 23039A   25353.83443561  .00010868  00000+0  26454-3 0  9994",
        "tle_line2": "2 55973  97.5103 156.6848 0004098  40.6668 319.4884 15.41119202153153"
      },
      "geometry": {
        "type": "Point",
        "coordinates": [
          160.38708851099605,
          -24.03576768480919
        ]
      }
    },
    {
      "type": "Feature",
      "properties": {
        "norad_id": 55974,
        "name": "TIANMU-1 04",
        "group": "weather",
        "lat": 78.32260685524395,
        "lon": 15.82652869458594,
        "alt_km": 433.12734346115485,
        "timestamp": "2025-12-20T03:42:47.035757+00:00",
        "meta_object_name": "TIANMU-1 04",
        "meta_object_id": "2023-039B",
        "meta_epoch": "2025-12-19T21:03:13.771008",
        "meta_mean_motion": 15.4146108,
        "meta_eccentricity": 0.0004716,
        "meta_inclination": 97.5036,
        "meta_ra_of_asc_node": 155.9169,
        "meta_arg_of_pericenter": 34.7252,
        "meta_mean_anomaly": 325.4301,
        "meta_ephemeris_type": 0,
        "meta_classification_type": "U",
        "meta_norad_cat_id": 55974,
        "meta_element_set_no": 999,
        "meta_rev_at_epoch": 15316,
        "meta_bstar": 0.00026754,
        "meta_mean_motion_dot": 0.0001112,
        "meta_mean_motion_ddot": 0,
        "tle_line1": "1 55974U 23039B   25353.87724272  .00011120  00000+0  26754-3 0  9995",
        "tle_line2": "2 55974  97.5036 155.9169 0004716  34.7252 325.4301 15.41461080153163"
      },
      "geometry": {
        "type": "Point",
        "coordinates": [
          15.82652869458594,
          78.32260685524395
        ]
      }
    },
    {
      "type": "Feature",
      "properties": {
        "norad_id": 55975,
        "name": "TIANMU-1 05",
        "group": "weather",
        "lat": 58.450635240128435,
        "lon": -10.900766909518241,
        "alt_km": 436.0210282346543,
        "timestamp": "2025-12-20T03:42:47.035771+00:00",
        "meta_object_name": "TIANMU-1 05",
        "meta_object_id": "2023-039C",
        "meta_epoch": "2025-12-19T19:23:59.240256",
        "meta_mean_motion": 15.41076104,
        "meta_eccentricity": 0.0004152,
        "meta_inclination": 97.5082,
        "meta_ra_of_asc_node": 156.3388,
        "meta_arg_of_pericenter": 58.9471,
        "meta_mean_anomaly": 301.2182,
        "meta_ephemeris_type": 0,
        "meta_classification_type": "U",
        "meta_norad_cat_id": 55975,
        "meta_element_set_no": 999,
        "meta_rev_at_epoch": 15313,
        "meta_bstar": 0.00027257,
        "meta_mean_motion_dot": 0.00011186,
        "meta_mean_motion_ddot": 0,
        "tle_line1": "1 55975U 23039C   25353.80832454  .00011186  00000+0  27257-3 0  9992",
        "tle_line2": "2 55975  97.5082 156.3388 0004152  58.9471 301.2182 15.41076104153133"
      },
      "geometry": {
        "type": "Point",
        "coordinates": [
          -10.900766909518241,
          58.450635240128435
        ]
      }
    },
    {
      "type": "Feature",
      "properties": {
        "norad_id": 55976,
        "name": "TIANMU-1 06",
        "group": "weather",
        "lat": 82.28695137613899,
        "lon": 80.26830383075286,
        "alt_km": 431.71269664950523,
        "timestamp": "2025-12-20T03:42:47.035781+00:00",
        "meta_object_name": "TIANMU-1 06",
        "meta_object_id": "2023-039D",
        "meta_epoch": "2025-12-19T21:06:00.999072",
        "meta_mean_motion": 15.41512637,
        "meta_eccentricity": 0.0004441,
        "meta_inclination": 97.5093,
        "meta_ra_of_asc_node": 156.8826,
        "meta_arg_of_pericenter": 53.2201,
        "meta_mean_anomaly": 306.9453,
        "meta_ephemeris_type": 0,
        "meta_classification_type": "U",
        "meta_norad_cat_id": 55976,
        "meta_element_set_no": 999,
        "meta_rev_at_epoch": 15316,
        "meta_bstar": 0.00026508,
        "meta_mean_motion_dot": 0.00011035,
        "meta_mean_motion_ddot": 0,
        "tle_line1": "1 55976U 23039D   25353.87917823  .00011035  00000+0  26508-3 0  9995",
        "tle_line2": "2 55976  97.5093 156.8826 0004441  53.2201 306.9453 15.41512637153160"
      },
      "geometry": {
        "type": "Point",
        "coordinates": [
          80.26830383075286,
          82.28695137613899
        ]
      }
    },
    {
      "type": "Feature",
      "properties": {
        "norad_id": 56232,
        "name": "FENGYUN 3G",
        "group": "weather",
        "lat": -13.735060998990916,
        "lon": 21.024666844504743,
        "alt_km": 400.9606610611372,
        "timestamp": "2025-12-20T03:42:47.035793+00:00",
        "meta_object_name": "FENGYUN 3G",
        "meta_object_id": "2023-055A",
        "meta_epoch": "2025-12-19T20:41:32.363232",
        "meta_mean_motion": 15.54048176,
        "meta_eccentricity": 0.0009327,
        "meta_inclination": 49.9918,
        "meta_ra_of_asc_node": 190.6889,
        "meta_arg_of_pericenter": 180.5747,
        "meta_mean_anomaly": 179.5212,
        "meta_ephemeris_type": 0,
        "meta_classification_type": "U",
        "meta_norad_cat_id": 56232,
        "meta_element_set_no": 999,
        "meta_rev_at_epoch": 15213,
        "meta_bstar": 0.0003313,
        "meta_mean_motion_dot": 0.00021517,
        "meta_mean_motion_ddot": 0,
        "tle_line1": "1 56232U 23055A   25353.86218013  .00021517  00000+0  33130-3 0  9998",
        "tle_line2": "2 56232  49.9918 190.6889 0009327 180.5747 179.5212 15.54048176152134"
      },
      "geometry": {
        "type": "Point",
        "coordinates": [
          21.024666844504743,
          -13.735060998990916
        ]
      }
    },
    {
      "type": "Feature",
      "properties": {
        "norad_id": 57166,
        "name": "METEOR-M2 3",
        "group": "weather",
        "lat": 75.69377001793406,
        "lon": 10.979586755661728,
        "alt_km": 804.6456960002206,
        "timestamp": "2025-12-20T03:42:47.035804+00:00",
        "meta_object_name": "METEOR-M2 3",
        "meta_object_id": "2023-091A",
        "meta_epoch": "2025-12-19T20:36:01.535904",
        "meta_mean_motion": 14.24026891,
        "meta_eccentricity": 0.0003501,
        "meta_inclination": 98.6368,
        "meta_ra_of_asc_node": 47.2731,
        "meta_arg_of_pericenter": 347.6449,
        "meta_mean_anomaly": 12.4643,
        "meta_ephemeris_type": 0,
        "meta_classification_type": "U",
        "meta_norad_cat_id": 57166,
        "meta_element_set_no": 999,
        "meta_rev_at_epoch": 12899,
        "meta_bstar": 2.4498e-05,
        "meta_mean_motion_dot": 1.3e-07,
        "meta_mean_motion_ddot": 0,
        "tle_line1": "1 57166U 23091A   25353.85835111  .00000013  00000+0  24498-4 0  9994",
        "tle_line2": "2 57166  98.6368  47.2731 0003501 347.6449  12.4643 14.24026891128993"
      },
      "geometry": {
        "type": "Point",
        "coordinates": [
          10.979586755661728,
          75.69377001793406
        ]
      }
    },
    {
      "type": "Feature",
      "properties": {
        "norad_id": 57399,
        "name": "TIANMU-1 07",
        "group": "weather",
        "lat": 20.03573603222795,
        "lon": -133.48407351215363,
        "alt_km": 481.90972323083133,
        "timestamp": "2025-12-20T03:42:47.035814+00:00",
        "meta_object_name": "TIANMU-1 07",
        "meta_object_id": "2023-101A",
        "meta_epoch": "2025-12-19T20:43:51.444768",
        "meta_mean_motion": 15.28167008,
        "meta_eccentricity": 0.0005318,
        "meta_inclination": 97.2868,
        "meta_ra_of_asc_node": 43.5568,
        "meta_arg_of_pericenter": 63.4267,
        "meta_mean_anomaly": 296.7517,
        "meta_ephemeris_type": 0,
        "meta_classification_type": "U",
        "meta_norad_cat_id": 57399,
        "meta_element_set_no": 999,
        "meta_rev_at_epoch": 13424,
        "meta_bstar": 0.00018641,
        "meta_mean_motion_dot": 5.046e-05,
        "meta_mean_motion_ddot": 0,
        "tle_line1": "1 57399U 23101A   25353.86378987  .00005046  00000+0  18641-3 0  9991",
        "tle_line2": "2 57399  97.2868  43.5568 0005318  63.4267 296.7517 15.28167008134240"
      },
      "geometry": {
        "type": "Point",
        "coordinates": [
          -133.48407351215363,
          20.03573603222795
        ]
      }
    }
  ]
}